[{"OBJECT_NAME":"STARLINK-5732","OBJECT_ID":"2023-020D","EPOCH":"2026-03-09T04:58:15.357216","MEAN_MOTION":15.02530703,"ECCENTRICITY":9.817e-5,"INCLINATION":43.0025,"RA_OF_ASC_NODE":7.5285,"ARG_OF_PERICENTER":258.253,"MEAN_ANOMALY":101.8203,"EPHEMERIS_TYPE":0,"CLASSIFICATION_TYPE":"U","NORAD_CAT_ID":55572,"ELEMENT_SET_NO":999,"REV_AT_EPOCH":16884,"BSTAR":-7.1304503e-5,"MEAN_MOTION_DOT":-1.166e-5,"MEAN_MOTION_DDOT":0},{"OBJECT_NAME":"CZ-6A DEB","OBJECT_ID":"2022-151ACK","EPOCH":"2026-03-09T17:07:55.484832","MEAN_MOTION":14.91029585,"ECCENTRICITY":0.00541971,"INCLINATION":98.6318,"RA_OF_ASC_NODE":144.964,"ARG_OF_PERICENTER":183.961,"MEAN_ANOMALY":176.1184,"EPHEMERIS_TYPE":0,"CLASSIFICATION_TYPE":"U","NORAD_CAT_ID":56267,"ELEMENT_SET_NO":999,"REV_AT_EPOCH":16429,"BSTAR":0.0040603804,"MEAN_MOTION_DOT":0.00041466,"MEAN_MOTION_DDOT":0}]
